NORAD_CAT_ID,OBJECT_NAME,OBJECT_TYPE,EPOCH,MEAN_MOTION,ECCENTRICITY,INCLINATION,RA_OF_ASC_NODE,ARG_OF_PERICENTER,MEAN_ANOMALY,BSTAR,MEAN_MOTION_DOT,MEAN_MOTION_DDOT,TLE_LINE0,TLE_LINE1,TLE_LINE2,SEMIMAJOR_AXIS,PERIOD,APOGEE,PERIGEE,DECAYED
54179.0,STARLINK-5122,PAYLOAD,2024-02-23 20:24:11,15.08826324,0.0001658,53.2166,107.7298,93.6975,266.4207,-2.4481e-05,-6.77e-06,0.0,0 STARLINK-5122,1 54179U 22141Y   24054.85013784 -.00000677  00000-0 -24481-4 0  9992,2 54179  53.2166 107.7298 0001658  93.6975 266.4207 15.08826324 73640,6917.922,95.438,540.934,538.64,0.0
54179.0,STARLINK-5122,PAYLOAD,2024-02-24 10:42:39,15.08852186,0.0001667,53.2164,105.0536,94.5902,265.528,-0.00012119,-2.217e-05,0.0,0 STARLINK-5122,1 54179U 22141Y   24055.44628651 -.00002217  00000-0 -12119-3 0  9999,2 54179  53.2164 105.0536 0001667  94.5902 265.5280 15.08852186 73730,6917.843,95.437,540.861,538.555,0.0
54179.0,STARLINK-5122,PAYLOAD,2024-02-24 12:18:02,15.08854493,0.0001716,53.2168,104.7568,96.9882,263.1305,-9.3313e-05,-1.774e-05,0.0,0 STARLINK-5122,1 54179U 22141Y   24055.51252404 -.00001774  00000-0 -93313-4 0  9999,2 54179  53.2168 104.7568 0001716  96.9882 263.1305 15.08854493 73514,6917.836,95.437,540.888,538.514,0.0
54179.0,STARLINK-5122,PAYLOAD,2024-02-24 20:14:57,15.0885484,0.0001619,53.216,103.2678,89.3451,270.7727,-0.000105,-1.959e-05,0.0,0 STARLINK-5122,1 54179U 22141Y   24055.84372198 -.00001959  00000-0 -10500-3 0  9999,2 54179  53.2160 103.2678 0001619  89.3451 270.7727 15.08854840 73565,6917.835,95.437,540.82,538.58,0.0
54179.0,STARLINK-5122,PAYLOAD,2024-02-25 02:36:31,15.08828452,0.0001647,53.2159,102.0787,94.5242,265.5939,0.00024952,3.684e-05,0.0,0 STARLINK-5122,1 54179U 22141Y   24056.10869228  .00003684  00000-0  24952-3 0  9995,2 54179  53.2159 102.0787 0001647  94.5242 265.5939 15.08828452 73835,6917.916,95.438,540.92,538.641,0.0
54179.0,STARLINK-5122,PAYLOAD,2024-02-25 10:33:26,15.08836059,0.0001653,53.2162,100.5918,87.0225,273.0956,0.00028704,4.283e-05,0.0,0 STARLINK-5122,1 54179U 22141Y   24056.43989081  .00004283  00000-0  28704-3 0  9996,2 54179  53.2162 100.5918 0001653  87.0225 273.0956 15.08836059 73658,6917.892,95.438,540.901,538.614,0.0
54179.0,STARLINK-5122,PAYLOAD,2024-02-25 20:05:45,15.0883956,0.0001746,53.2163,98.8091,89.979,270.1403,0.00020528,2.98e-05,0.0,0 STARLINK-5122,1 54179U 22141Y   24056.83733253  .00002980  00000-0  20528-3 0  9996,2 54179  53.2163  98.8091 0001746  89.9790 270.1403 15.08839560 73713,6917.882,95.438,540.955,538.539,0.0
54179.0,STARLINK-5122,PAYLOAD,2024-02-26 11:59:36,15.08849426,0.0001832,53.2163,95.8344,91.621,268.4992,9.2663e-05,1.187e-05,0.0,0 STARLINK-5122,1 54179U 22141Y   24057.49972843  .00001187  00000-0  92663-4 0  9997,2 54179  53.2163  95.8344 0001832  91.6210 268.4992 15.08849426 74046,6917.852,95.437,540.984,538.449,0.0
54179.0,STARLINK-5122,PAYLOAD,2024-02-27 08:39:38,15.08832723,0.0001705,53.2167,91.9659,101.29,258.8284,8.5829e-05,1.078e-05,0.0,0 STARLINK-5122,1 54179U 22141Y   24058.36085731  .00001078  00000-0  85829-4 0  9990,2 54179  53.2167  91.9659 0001705 101.2900 258.8284 15.08832723 74172,6917.903,95.438,540.947,538.588,0.0
54179.0,STARLINK-5122,PAYLOAD,2024-02-28 11:41:11,15.08844679,0.0001723,53.2168,86.9114,105.3495,254.7687,-8.5785e-06,-4.25e-06,0.0,0 STARLINK-5122,1 54179U 22141Y   24059.48693296 -.00000425  00000-0 -85785-5 0  9994,2 54179  53.2168  86.9114 0001723 105.3495 254.7687 15.08844679 74341,6917.866,95.437,540.923,538.539,0.0
54179.0,STARLINK-5122,PAYLOAD,2024-02-29 01:59:39,15.08834761,0.0001606,53.2166,84.2346,95.8812,264.2363,6.5408e-05,7.53e-06,0.0,0 STARLINK-5122,1 54179U 22141Y   24060.08309864  .00000753  00000-0  65408-4 0  9998,2 54179  53.2166  84.2346 0001606  95.8812 264.2363 15.08834761 74431,6917.896,95.438,540.872,538.65,0.0
54179.0,STARLINK-5122,PAYLOAD,2024-02-29 08:21:12,15.08839237,0.0001585,53.2166,83.0487,91.7357,268.3817,9.0072e-05,1.146e-05,0.0,0 STARLINK-5122,1 54179U 22141Y   24060.34805649  .00001146  00000-0  90072-4 0  9991,2 54179  53.2166  83.0487 0001585  91.7357 268.3817 15.08839237 74240,6917.883,95.438,540.844,538.651,0.0
54179.0,STARLINK-5122,PAYLOAD,2024-02-29 17:53:31,15.08836517,0.0001603,53.2167,81.2624,89.8728,270.2448,7.0223e-05,8.3e-06,0.0,0 STARLINK-5122,1 54179U 22141Y   24060.74549912  .00000830  00000-0  70223-4 0  9998,2 54179  53.2167  81.2624 0001603  89.8728 270.2448 15.08836517 74302,6917.891,95.438,540.865,538.647,0.0
54179.0,STARLINK-5122,PAYLOAD,2024-03-01 06:36:36,15.08840903,0.0001591,53.2168,78.8847,91.302,268.8155,5.5819e-05,6e-06,0.0,0 STARLINK-5122,1 54179U 22141Y   24061.27541851  .00000600  00000-0  55819-4 0  9990,2 54179  53.2168  78.8847 0001591  91.3020 268.8155 15.08840903 74617,6917.878,95.437,540.843,538.642,0.0
54179.0,STARLINK-5122,PAYLOAD,2024-03-01 17:44:18,15.08839654,0.0001576,53.2168,76.8029,90.1101,270.0071,6.4376e-05,7.37e-06,0.0,0 STARLINK-5122,1 54179U 22141Y   24061.73909906  .00000737  00000-0  64376-4 0  9999,2 54179  53.2168  76.8029 0001576  90.1101 270.0071 15.08839654 74452,6917.881,95.438,540.837,538.656,0.0
54179.0,STARLINK-5122,PAYLOAD,2024-03-02 06:27:23,15.08835293,0.0001734,53.217,74.4252,95.7674,264.3515,1.2182e-05,-9.4e-07,0.0,0 STARLINK-5122,1 54179U 22141Y   24062.26902515 -.00000094  00000-0  12182-4 0  9992,2 54179  53.2170  74.4252 0001734  95.7674 264.3515 15.08835293 74767,6917.895,95.438,540.959,538.56,0.0
54179.0,STARLINK-5122,PAYLOAD,2024-03-02 17:35:05,15.08838013,0.0001692,53.2172,72.3434,92.0316,268.087,5.8779e-05,6.47e-06,0.0,0 STARLINK-5122,1 54179U 22141Y   24062.73270316  .00000647  00000-0  58779-4 0  9996,2 54179  53.2172  72.3434 0001692  92.0316 268.0870 15.08838013 74605,6917.886,95.438,540.922,538.581,0.0
54179.0,STARLINK-5122,PAYLOAD,2024-03-03 09:28:56,15.0884581,0.0001691,53.2168,69.3676,86.8211,273.2974,9.0251e-05,1.149e-05,0.0,0 STARLINK-5122,1 54179U 22141Y   24063.39509744  .00001149  00000-0  90251-4 0  9998,2 54179  53.2168  69.3676 0001691  86.8211 273.2974 15.08845810 74930,6917.863,95.437,540.897,538.558,0.0
54179.0,STARLINK-5122,PAYLOAD,2024-03-04 07:44:20,15.08846017,0.0001475,53.2168,65.2024,90.5188,269.5973,0.00011789,1.589e-05,0.0,0 STARLINK-5122,1 54179U 22141Y   24064.32245684  .00001589  00000-0  11789-3 0  9998,2 54179  53.2168  65.2024 0001475  90.5188 269.5973 15.08846017 74844,6917.862,95.437,540.747,538.707,0.0
54179.0,STARLINK-5122,PAYLOAD,2024-03-04 17:16:39,15.08838246,0.0001475,53.2169,63.4197,92.952,267.1641,4.2323e-05,3.86e-06,0.0,0 STARLINK-5122,1 54179U 22141Y   24064.71990349  .00000386  00000-0  42323-4 0  9999,2 54179  53.2169  63.4197 0001475  92.9520 267.1641 15.08838246 75136,6917.886,95.438,540.771,538.73,0.0
54179.0,STARLINK-5122,PAYLOAD,2024-03-05 09:10:31,15.08840677,0.0001534,53.2172,60.4431,103.2235,256.8928,-1.3457e-05,-5.02e-06,0.0,0 STARLINK-5122,1 54179U 22141Y   24065.38230471 -.00000502  00000-0 -13457-4 0  9994,2 54179  53.2172  60.4431 0001534 103.2235 256.8928 15.08840677 75003,6917.878,95.438,540.805,538.682,0.0
54179.0,STARLINK-5122,PAYLOAD,2024-03-06 04:15:08,15.08844212,0.0001419,53.2168,56.8748,104.8074,255.3075,0.00013347,1.837e-05,0.0,0 STARLINK-5122,1 54179U 22141Y   24066.17717971  .00001837  00000-0  13347-3 0  9994,2 54179  53.2168  56.8748 0001419 104.8074 255.3075 15.08844212 75352,6917.868,95.437,540.714,538.751,0.0
54179.0,STARLINK-5122,PAYLOAD,2024-03-06 05:50:31,15.08848773,0.0001433,53.2166,56.5784,102.9659,257.1494,7.549e-05,9.14e-06,0.0,0 STARLINK-5122,1 54179U 22141Y   24066.24341898  .00000914  00000-0  75490-4 0  9996,2 54179  53.2166  56.5784 0001433 102.9659 257.1494 15.08848773 75138,6917.854,95.437,540.71,538.727,0.0
54179.0,STARLINK-5122,PAYLOAD,2024-03-07 04:05:55,15.08839768,0.0001511,53.2164,52.4146,109.7586,250.3569,0.00013821,1.912e-05,0.0,0 STARLINK-5122,1 54179U 22141Y   24067.17078309  .00001912  00000-0  13821-3 0  9991,2 54179  53.2164  52.4146 0001511 109.7586 250.3569 15.08839768 75507,6917.881,95.438,540.791,538.701,0.0
54179.0,STARLINK-5122,PAYLOAD,2024-03-07 05:41:19,15.08822201,0.0001454,53.2171,52.1198,109.6987,250.4162,0.000383,5.81e-05,0.0,0 STARLINK-5122,1 54179U 22141Y   24067.23702804  .00005810  00000-0  38300-3 0  9992,2 54179  53.2171  52.1198 0001454 109.6987 250.4162 15.08822201 75288,6917.935,95.439,540.806,538.794,0.0
54179.0,STARLINK-5122,PAYLOAD,2024-03-08 02:21:20,15.08821666,0.0001431,53.2182,48.2558,102.7406,257.3746,0.00033968,5.12e-05,0.0,0 STARLINK-5122,1 54179U 22141Y   24068.09815305  .00005120  00000-0  33968-3 0  9997,2 54179  53.2182  48.2558 0001431 102.7406 257.3746 15.08821666 75649,6917.936,95.439,540.791,538.811,0.0
54179.0,STARLINK-5122,PAYLOAD,2024-03-08 05:32:05,15.08843825,0.0001546,53.2185,47.6613,102.21,257.9065,2.9602e-05,1.83e-06,0.0,0 STARLINK-5122,1 54179U 22141Y   24068.23062389  .00000183  00000-0  29602-4 0  9994,2 54179  53.2185  47.6613 0001546 102.2100 257.9065 15.08843825 75663,6917.869,95.437,540.803,538.664,0.0
54179.0,STARLINK-5122,PAYLOAD,2024-03-08 15:04:24,15.08843217,0.000144,53.218,45.8759,98.7486,261.367,-2.3619e-06,-3.26e-06,0.0,0 STARLINK-5122,1 54179U 22141Y   24068.62806421 -.00000326  00000-0 -23619-5 0  9994,2 54179  53.2180  45.8759 0001440  98.7486 261.3670 15.08843217 75495,6917.871,95.437,540.732,538.739,0.0
54179.0,STARLINK-5122,PAYLOAD,2024-03-09 03:47:30,15.08833209,0.0001603,53.2199,43.5025,108.6983,251.4183,2.0482e-06,-2.55e-06,0.0,0 STARLINK-5122,1 54179U 22141Y   24069.15799262 -.00000255  00000-0  20482-5 0  9992,2 54179  53.2199  43.5025 0001603 108.6983 251.4183 15.08833209 75804,6917.901,95.438,540.875,538.657,0.0
54179.0,STARLINK-5122,PAYLOAD,2024-03-09 22:52:07,15.08841333,0.0001648,53.2197,39.9312,107.8417,252.2755,6.9543e-05,8.19e-06,0.0,0 STARLINK-5122,1 54179U 22141Y   24069.95286718  .00000819  00000-0  69543-4 0  9992,2 54179  53.2197  39.9312 0001648 107.8417 252.2755 15.08841333 75690,6917.876,95.437,540.881,538.601,0.0
